{"type": "FeatureCollection", "features": [ {"type": "Feature", "properties": {"norad_id": 34529, "name": "IRIDIUM 33 DEB", "group": "iridium-33-debris", "lat": -37.648177552945015, "lon": 33.89374853278311, "alt_km": 765.1503672392109, "timestamp": "2025-12-09T16:56:36.959334+00:00", "meta": {"OBJECT_NAME": "IRIDIUM 33 DEB", "OBJECT_ID": "1997-051HW", "EPOCH": "2025-12-09T03:46:56.686656", "MEAN_MOTION": 14.40611183, "ECCENTRICITY": 0.00043514, "INCLINATION": 86.3644, "RA_OF_ASC_NODE": 36.9388, "ARG_OF_PERICENTER": 189.2574, "MEAN_ANOMALY": 170.8546, "EPHEMERIS_TYPE": 0, "CLASSIFICATION_TYPE": "U", "NORAD_CAT_ID": 34529, "ELEMENT_SET_NO": 999, "REV_AT_EPOCH": 88090, "BSTAR": 0.00017454195, "MEAN_MOTION_DOT": 5.76e-06, "MEAN_MOTION_DDOT": 0}, "tle": {"line1": "1 34529U 97051HW  25343.15760054  .00000576  00000+0  17454-3 0  9991", "line2": "2 34529  86.3644  36.9388 0004351 189.2574 170.8546 14.40611183880907"}}, "geometry": {"type": "Point", "coordinates": [33.89374853278311, -37.648177552945015]}}, {"type": "Feature", "properties": {"norad_id": 34538, "name": "IRIDIUM 33 DEB", "group": "iridium-33-debris", "lat": 42.29243564728964, "lon": -176.51058957361835, "alt_km": 768.591591880132, "timestamp": "2025-12-09T16:56:36.959345+00:00", "meta": {"OBJECT_NAME": "IRIDIUM 33 DEB", "OBJECT_ID": "1997-051JF", "EPOCH": "2025-12-09T06:51:33.177024", "MEAN_MOTION": 14.42616834, "ECCENTRICITY": 0.0033201, "INCLINATION": 86.2773, "RA_OF_ASC_NODE": 7.0688, "ARG_OF_PERICENTER": 339.7636, "MEAN_ANOMALY": 136.8152, "EPHEMERIS_TYPE": 0, "CLASSIFICATION_TYPE": "U", "NORAD_CAT_ID": 34538, "ELEMENT_SET_NO": 999, "REV_AT_EPOCH": 87706, "BSTAR": 0.0014099, "MEAN_MOTION_DOT": 4.732e-05, "MEAN_MOTION_DDOT": 0}, "tle": {"line1": "1 34538U 97051JF  25343.28580066  .00004732  00000+0  14099-2 0  9997", "line2": "2 34538  86.2773   7.0688 0033201 339.7636 136.8152 14.42616834877066"}}, "geometry": {"type": "Point", "coordinates": [-176.51058957361835, 42.29243564728964]}}, {"type": "Feature", "properties": {"norad_id": 34540, "name": "IRIDIUM 33 DEB", "group": "iridium-33-debris", "lat": -19.77410203976189, "lon": 130.32271938796637, "alt_km": 640.0973105962248, "timestamp": "2025-12-09T16:56:36.959355+00:00", "meta": {"OBJECT_NAME": "IRIDIUM 33 DEB", "OBJECT_ID": "1997-051JH", "EPOCH": "2025-12-09T10:06:38.326752", "MEAN_MOTION": 14.75206443, "ECCENTRICITY": 0.0015826, "INCLINATION": 86.3109, "RA_OF_ASC_NODE": 309.1237, "ARG_OF_PERICENTER": 170.9061, "MEAN_ANOMALY": 317.6862, "EPHEMERIS_TYPE": 0, "CLASSIFICATION_TYPE": "U", "NORAD_CAT_ID": 34540, "ELEMENT_SET_NO": 999, "REV_AT_EPOCH": 88972, "BSTAR": 0.0023004, "MEAN_MOTION_DOT": 0.00015619, "MEAN_MOTION_DDOT": 0}, "tle": {"line1": "1 34540U 97051JH  25343.42127693  .00015619  00000+0  23004-2 0  9991", "line2": "2 34540  86.3109 309.1237 0015826 170.9061 317.6862 14.75206443889729"}}, "geometry": {"type": "Point", "coordinates": [130.32271938796637, -19.77410203976189]}}, {"type": "Feature", "properties": {"norad_id": 34648, "name": "IRIDIUM 33 DEB", "group": "iridium-33-debris", "lat": -36.820373106897286, "lon": -79.53705407116115, "alt_km": 732.4599647025525, "timestamp": "2025-12-09T16:56:36.959366+00:00", "meta": {"OBJECT_NAME": "IRIDIUM 33 DEB", "OBJECT_ID": "1997-051JZ", "EPOCH": "2025-12-08T20:41:39.004800", "MEAN_MOTION": 14.11300262, "ECCENTRICITY": 0.01839546, "INCLINATION": 86.3913, "RA_OF_ASC_NODE": 283.5113, "ARG_OF_PERICENTER": 310.9542, "MEAN_ANOMALY": 47.5843, "EPHEMERIS_TYPE": 0, "CLASSIFICATION_TYPE": "U", "NORAD_CAT_ID": 34648, "ELEMENT_SET_NO": 999, "REV_AT_EPOCH": 84906, "BSTAR": 0.013206348, "MEAN_MOTION_DOT": 0.00028062, "MEAN_MOTION_DDOT": 0}, "tle": {"line1": "1 34648U 97051JZ  25342.86225700  .00028062  00000+0  13206-1 0  9993", "line2": "2 34648  86.3913 283.5113 0183954 310.9542  47.5843 14.11300262849062"}}, "geometry": {"type": "Point", "coordinates": [-79.53705407116115, -36.820373106897286]}}, {"type": "Feature", "properties": {"norad_id": 34651, "name": "IRIDIUM 33 DEB", "group": "iridium-33-debris", "lat": -44.090470437140674, "lon": -34.52359071643274, "alt_km": 712.4154088931718, "timestamp": "2025-12-09T16:56:36.959376+00:00", "meta": {"OBJECT_NAME": "IRIDIUM 33 DEB", "OBJECT_ID": "1997-051KC", "EPOCH": "2025-12-09T10:50:21.790176", "MEAN_MOTION": 14.25726982, "ECCENTRICITY": 0.0142031, "INCLINATION": 86.2852, "RA_OF_ASC_NODE": 141.9761, "ARG_OF_PERICENTER": 214.381, "MEAN_ANOMALY": 144.8131, "EPHEMERIS_TYPE": 0, "CLASSIFICATION_TYPE": "U", "NORAD_CAT_ID": 34651, "ELEMENT_SET_NO": 999, "REV_AT_EPOCH": 85849, "BSTAR": 0.0049534, "MEAN_MOTION_DOT": 0.00013098, "MEAN_MOTION_DDOT": 0}, "tle": {"line1": "1 34651U 97051KC  25343.45164109  .00013098  00000+0  49534-2 0  9995", "line2": "2 34651  86.2852 141.9761 0142031 214.3810 144.8131 14.25726982858493"}}, "geometry": {"type": "Point", "coordinates": [-34.52359071643274, -44.090470437140674]}}, {"type": "Feature", "properties": {"norad_id": 34652, "name": "IRIDIUM 33 DEB", "group": "iridium-33-debris", "lat": -59.10198251218689, "lon": 167.5065973337799, "alt_km": 687.5657227638512, "timestamp": "2025-12-09T16:56:36.959386+00:00", "meta": {"OBJECT_NAME": "IRIDIUM 33 DEB", "OBJECT_ID": "1997-051KD", "EPOCH": "2025-12-09T11:37:22.959264", "MEAN_MOTION": 14.62008914, "ECCENTRICITY": 0.0026208, "INCLINATION": 86.3314, "RA_OF_ASC_NODE": 341.4507, "ARG_OF_PERICENTER": 310.1115, "MEAN_ANOMALY": 203.3524, "EPHEMERIS_TYPE": 0, "CLASSIFICATION_TYPE": "U", "NORAD_CAT_ID": 34652, "ELEMENT_SET_NO": 999, "REV_AT_EPOCH": 88436, "BSTAR": 0.0015009, "MEAN_MOTION_DOT": 7.584e-05, "MEAN_MOTION_DDOT": 0}, "tle": {"line1": "1 34652U 97051KD  25343.48429351  .00007584  00000+0  15009-2 0  9995", "line2": "2 34652  86.3314 341.4507 0026208 310.1115 203.3524 14.62008914884364"}}, "geometry": {"type": "Point", "coordinates": [167.5065973337799, -59.10198251218689]}}, {"type": "Feature", "properties": {"norad_id": 34690, "name": "IRIDIUM 33 DEB", "group": "iridium-33-debris", "lat": 1.643016174986431, "lon": -141.79435719886987, "alt_km": 718.1005931660447, "timestamp": "2025-12-09T16:56:36.959396+00:00", "meta": {"OBJECT_NAME": "IRIDIUM 33 DEB", "OBJECT_ID": "1997-051KM", "EPOCH": "2025-12-08T22:13:37.657056", "MEAN_MOTION": 14.5507276, "ECCENTRICITY": 0.0011287, "INCLINATION": 86.378, "RA_OF_ASC_NODE": 38.6486, "ARG_OF_PERICENTER": 40.9093, "MEAN_ANOMALY": 14.7923, "EPHEMERIS_TYPE": 0, "CLASSIFICATION_TYPE": "U", "NORAD_CAT_ID": 34690, "ELEMENT_SET_NO": 999, "REV_AT_EPOCH": 88039, "BSTAR": 0.00058226, "MEAN_MOTION_DOT": 2.533e-05, "MEAN_MOTION_DDOT": 0}, "tle": {"line1": "1 34690U 97051KM  25342.92613029  .00002533  00000+0  58226-3 0  9990", "line2": "2 34690  86.3780  38.6486 0011287  40.9093  14.7923 14.55072760880396"}}, "geometry": {"type": "Point", "coordinates": [-141.79435719886987, 1.643016174986431]}}, {"type": "Feature", "properties": {"norad_id": 34693, "name": "IRIDIUM 33 DEB", "group": "iridium-33-debris", "lat": 21.43281345061541, "lon": 123.87760602555014, "alt_km": 487.4625318916105, "timestamp": "2025-12-09T16:56:36.959407+00:00", "meta": {"OBJECT_NAME": "IRIDIUM 33 DEB", "OBJECT_ID": "1997-051KQ", "EPOCH": "2025-12-09T08:57:41.151744", "MEAN_MOTION": 15.26674014, "ECCENTRICITY": 0.0014739, "INCLINATION": 86.3059, "RA_OF_ASC_NODE": 305.4958, "ARG_OF_PERICENTER": 58.3215, "MEAN_ANOMALY": 73.1898, "EPHEMERIS_TYPE": 0, "CLASSIFICATION_TYPE": "U", "NORAD_CAT_ID": 34693, "ELEMENT_SET_NO": 999, "REV_AT_EPOCH": 88863, "BSTAR": 0.0058093, "MEAN_MOTION_DOT": 0.00155763, "MEAN_MOTION_DDOT": 0}, "tle": {"line1": "1 34693U 97051KQ  25343.37339296  .00155763  00000+0  58093-2 0  9999", "line2": "2 34693  86.3059 305.4958 0014739  58.3215  73.1898 15.26674014888635"}}, "geometry": {"type": "Point", "coordinates": [123.87760602555014, 21.43281345061541]}}, {"type": "Feature", "properties": {"norad_id": 34696, "name": "IRIDIUM 33 DEB", "group": "iridium-33-debris", "lat": -29.26361780255472, "lon": -148.9235143999812, "alt_km": 638.8290473496136, "timestamp": "2025-12-09T16:56:36.959417+00:00", "meta": {"OBJECT_NAME": "IRIDIUM 33 DEB", "OBJECT_ID": "1997-051KT", "EPOCH": "2025-12-09T09:30:59.474016", "MEAN_MOTION": 14.64808482, "ECCENTRICITY": 0.0074295, "INCLINATION": 86.1845, "RA_OF_ASC_NODE": 29.0773, "ARG_OF_PERICENTER": 178.7552, "MEAN_ANOMALY": 199.1834, "EPHEMERIS_TYPE": 0, "CLASSIFICATION_TYPE": "U", "NORAD_CAT_ID": 34696, "ELEMENT_SET_NO": 999, "REV_AT_EPOCH": 86624, "BSTAR": 0.0068805, "MEAN_MOTION_DOT": 0.00038407, "MEAN_MOTION_DDOT": 0}, "tle": {"line1": "1 34696U 97051KT  25343.39652169  .00038407  00000+0  68805-2 0  9998", "line2": "2 34696  86.1845  29.0773 0074295 178.7552 199.1834 14.64808482866248"}}, "geometry": {"type": "Point", "coordinates": [-148.9235143999812, -29.26361780255472]}}, {"type": "Feature", "properties": {"norad_id": 34765, "name": "IRIDIUM 33 DEB", "group": "iridium-33-debris", "lat": 6.349957577776328, "lon": 34.47157180500816, "alt_km": 767.9477046075353, "timestamp": "2025-12-09T16:56:36.959427+00:00", "meta": {"OBJECT_NAME": "IRIDIUM 33 DEB", "OBJECT_ID": "1997-051LJ", "EPOCH": "2025-12-09T10:18:46.721088", "MEAN_MOTION": 14.40452854, "ECCENTRICITY": 0.0015105, "INCLINATION": 86.3396, "RA_OF_ASC_NODE": 34.1819, "ARG_OF_PERICENTER": 223.0287, "MEAN_ANOMALY": 151.5959, "EPHEMERIS_TYPE": 0, "CLASSIFICATION_TYPE": "U", "NORAD_CAT_ID": 34765, "ELEMENT_SET_NO": 999, "REV_AT_EPOCH": 87566, "BSTAR": 0.00070906, "MEAN_MOTION_DOT": 2.275e-05, "MEAN_MOTION_DDOT": 0}, "tle": {"line1": "1 34765U 97051LJ  25343.42970742  .00002275  00000+0  70906-3 0  9999", "line2": "2 34765  86.3396  34.1819 0015105 223.0287 151.5959 14.40452854875668"}}, "geometry": {"type": "Point", "coordinates": [34.47157180500816, 6.349957577776328]}}]}